SKYKRAFT-1A             
1 55054U 23001AX  26068.71064616  .00008177  00000+0  30069-3 0  9991
2 55054  97.3349 127.6290 0011277 121.5092 238.7251 15.28083228176529
STARLINK-35941          
1 66583U 25268AC  26068.16753843  .00033482  00000+0  12194-2 0  9998
2 66583  43.0043 349.6827 0001704 259.9625 100.1035 15.27614759 17884
